OBJECT_NAME,OBJECT_ID,EPOCH,MEAN_MOTION,ECCENTRICITY,INCLINATION,RA_OF_ASC_NODE,ARG_OF_PERICENTER,MEAN_ANOMALY,EPHEMERIS_TYPE,CLASSIFICATION_TYPE,NORAD_CAT_ID,ELEMENT_SET_NO,REV_AT_EPOCH,BSTAR,MEAN_MOTION_DOT,MEAN_MOTION_DDOT
STARLINK-37963,2026-147F,2026-07-19T12:47:50.163072,15.80774824,.00023809,97.2834,237.1803,334.3623,25.7527,0,U,69709,999,454,.12087562E-2,.237368E-2,0
STARLINK-37969,2026-147G,2026-07-19T12:46:43.869216,15.80829966,.00020029,97.2837,237.1813,0.6740,359.4531,0,U,69710,999,454,.10325341E-2,.202429E-2,0
STARLINK-37956,2026-147H,2026-07-19T12:46:20.976672,15.78386719,.00005098,97.2838,237.1826,357.7393,2.3871,0,U,69711,999,454,-.67386987E-2,-.1026963E-1,0
STARLINK-38043,2026-147J,2026-07-19T12:44:32.213760,15.80904411,.00007084,97.2832,237.1826,37.4260,322.7058,0,U,69712,999,454,.1071925E-2,.211078E-2,0
STARLINK-38020,2026-147K,2026-07-19T12:43:52.506912,15.80107506,.00042024,97.2837,237.1848,332.0003,28.1038,0,U,69713,999,454,.59418381E-2,.1246184E-1,0
STARLINK-38059,2026-147L,2026-07-19T14:00:01.999872,15.76271892,.0001591,97.2846,237.2380,98.0268,202.2110,0,U,69714,999,444,-.18756727E-1,-.2508189E-1,0
STARLINK-38061,2026-147M,2026-07-19T12:41:17.256480,15.80867548,.0000273,97.2822,237.1863,37.1076,323.0211,0,U,69715,999,454,.85280438E-3,.166763E-2,0
STARLINK-38060,2026-147N,2026-07-19T12:40:12.274176,15.80871605,.00003066,97.2820,237.1867,0.2140,359.9129,0,U,69716,999,454,.90032154E-3,.176289E-2,0
STARLINK-38040,2026-147P,2026-07-19T12:39:07.530336,15.80869925,.00006515,97.2826,237.1887,57.6604,302.4727,0,U,69717,999,454,.94103331E-3,.184425E-2,0
STARLINK-37989,2026-147Q,2026-07-19T14:00:01.999872,15.78130173,.00016103,97.2844,237.2486,106.4094,215.1971,0,U,69718,999,453,-.17559874E-1,-.254522E-1,0
STARLINK-38039,2026-147R,2026-07-19T12:36:57.795552,15.80896523,.00008053,97.2833,237.1899,68.3274,291.8080,0,U,69719,999,454,.10043018E-2,.197368E-2,0
STARLINK-38003,2026-147S,2026-07-19T12:35:52.894464,15.80903130,.00007992,97.2827,237.1906,66.6156,293.5196,0,U,69720,999,454,.10795939E-2,.212614E-2,0
STARLINK-38014,2026-147T,2026-07-19T14:05:57.209280,15.80824352,.00011661,97.2834,237.2595,77.6466,282.4933,0,U,69721,999,455,.10873514E-2,.213393E-2,0
STARLINK-37915,2026-147U,2026-07-19T14:04:52.292640,15.80823285,.00013513,97.2837,237.2604,84.7068,275.4354,0,U,69722,999,455,.11755117E-2,.23117E-2,0
STARLINK-38007,2026-147V,2026-07-19T12:37:09.513120,15.80936762,.00004325,97.2820,237.1890,335.7407,24.3841,0,U,69723,999,454,.13920591E-2,.276666E-2,0
STARLINK-38008,2026-147W,2026-07-19T14:02:42.259776,15.80821510,.00009148,97.2835,237.2635,78.4579,281.6792,0,U,69724,999,455,.10699294E-2,.209858E-2,0
STARLINK-38021,2026-147X,2026-07-19T14:01:37.589376,15.80815907,.00016037,97.2814,237.2638,75.7086,284.4360,0,U,69725,999,455,.91250577E-3,.178264E-2,0
STARLINK-38015,2026-147Y,2026-07-17T01:14:28.656384,15.80693791,.00031092,97.2828,234.5863,175.2803,184.8496,0,U,69726,999,415,.13764939E-2,.270378E-2,0
STARLINK-38010,2026-147Z,2026-07-19T13:24:29.158848,15.75228552,.00003153,97.2826,237.1463,126.2430,233.8864,0,U,69727,999,454,.77806939E-3,.117732E-2,0
SXM-11,2026-148A,2026-07-19T12:36:12.736224,1.00270397,.00020343,0.1001,264.9874,185.7788,275.0680,0,U,69728,999,36,0,.6E-7,0
HAIYANG-2E,2026-149A,2026-07-19T10:31:53.715360,13.79314803,.0001621,99.3444,207.3057,89.5851,270.5487,0,U,69737,999,240,-.2371101E-5,-.47E-6,0
STARLINK-38033,2026-150A,2026-07-19T12:22:32.100384,15.80845988,.00004372,97.2846,39.1269,19.8327,340.2958,0,U,69739,999,400,.54287901E-3,.10525E-2,0
STARLINK-38076,2026-150B,2026-07-19T11:40:12.091584,15.75266947,.00029343,97.2840,39.0116,77.3192,282.8401,0,U,69740,999,399,.10947534E-2,.166966E-2,0
STARLINK-38074,2026-150C,2026-07-19T14:00:01.999872,15.75260389,.00008658,97.2842,39.1935,84.3694,286.0006,0,U,69741,999,400,-.94091883E-3,-.138636E-2,0
STARLINK-38041,2026-150D,2026-07-19T14:00:01.999872,15.75244287,.00011458,97.2853,39.1708,83.5575,232.8282,0,U,69742,999,400,-.80153889E-3,-.11832E-2,0
STARLINK-38087,2026-150E,2026-07-19T14:00:01.999872,15.75240129,.0001042,97.2845,39.1884,77.3465,281.0349,0,U,69743,999,400,-.75026194E-3,-.110834E-2,0
STARLINK-38078,2026-150F,2026-07-19T12:15:33.943392,15.80952306,.00021248,97.2844,39.1332,119.3640,240.7841,0,U,69744,999,400,.15445875E-2,.308334E-2,0
STARLINK-38047,2026-150G,2026-07-19T14:00:01.999872,15.75255424,.00004777,97.2852,39.1739,78.6895,247.6912,0,U,69745,999,400,-.91423657E-3,-.134736E-2,0
STARLINK-38046,2026-150H,2026-07-19T14:00:01.999872,15.76197305,.00012984,97.2843,39.2146,83.0458,336.7751,0,U,69746,999,400,-.96767934E-2,-.1346792E-1,0
