STARLINK-37963          
1 69709U 26147F   26200.53321948  .00237368  00000+0  12088-2 0  9995
2 69709  97.2834 237.1803 0002380 334.3623  25.7527 15.80774824  4544
STARLINK-37969          
1 69710U 26147G   26200.53245219  .00202429  00000+0  10325-2 0  9995
2 69710  97.2837 237.1813 0002002   0.6740 359.4531 15.80829966  4544
STARLINK-37956          
1 69711U 26147H   26200.53218723 -.01026963  00000+0 -67387-2 0  9996
2 69711  97.2838 237.1826 0000509 357.7393   2.3871 15.78386719  4542
STARLINK-38043          
1 69712U 26147J   26200.53092840  .00211078  00000+0  10719-2 0  9994
2 69712  97.2832 237.1826 0000708  37.4260 322.7058 15.80904411  4547
STARLINK-38020          
1 69713U 26147K   26200.53046883  .01246184  00000+0  59418-2 0  9997
2 69713  97.2837 237.1848 0004202 332.0003  28.1038 15.80107506  4544
STARLINK-38059          
1 69714U 26147L   26200.58335648 -.02508189  00000+0 -18757-1 0  9992
2 69714  97.2846 237.2380 0001591  98.0268 202.2110 15.76271892  4447
STARLINK-38061          
1 69715U 26147M   26200.52867195  .00166763  00000+0  85280-3 0  9995
2 69715  97.2822 237.1863 0000273  37.1076 323.0211 15.80867548  4543
STARLINK-38060          
1 69716U 26147N   26200.52791984  .00176289  00000+0  90032-3 0  9993
2 69716  97.2820 237.1867 0000306   0.2140 359.9129 15.80871605  4541
STARLINK-38040          
1 69717U 26147P   26200.52717049  .00184425  00000+0  94103-3 0  9998
2 69717  97.2826 237.1887 0000651  57.6604 302.4727 15.80869925  4543
STARLINK-37989          
1 69718U 26147Q   26200.58335648 -.02545220  00000+0 -17560-1 0  9994
2 69718  97.2844 237.2486 0001610 106.4094 215.1971 15.78130173  4535
STARLINK-38039          
1 69719U 26147R   26200.52566893  .00197368  00000+0  10043-2 0  9999
2 69719  97.2833 237.1899 0000805  68.3274 291.8080 15.80896523  4546
STARLINK-38003          
1 69720U 26147S   26200.52491776  .00212614  00000+0  10796-2 0  9995
2 69720  97.2827 237.1906 0000799  66.6156 293.5196 15.80903130  4542
STARLINK-38014          
1 69721U 26147T   26200.58746770  .00213393  00000+0  10874-2 0  9991
2 69721  97.2834 237.2595 0001166  77.6466 282.4933 15.80824352  4556
STARLINK-37915          
1 69722U 26147U   26200.58671635  .00231170  00000+0  11755-2 0  9991
2 69722  97.2837 237.2604 0001351  84.7068 275.4354 15.80823285  4557
STARLINK-38007          
1 69723U 26147V   26200.52580455  .00276666  00000+0  13921-2 0  9991
2 69723  97.2820 237.1890 0000432 335.7407  24.3841 15.80936762  4547
STARLINK-38008          
1 69724U 26147W   26200.58521134  .00209858  00000+0  10699-2 0  9995
2 69724  97.2835 237.2635 0000914  78.4579 281.6792 15.80821510  4556
STARLINK-38021          
1 69725U 26147X   26200.58446284  .00178264  00000+0  91251-3 0  9998
2 69725  97.2814 237.2638 0001603  75.7086 284.4360 15.80815907  4551
STARLINK-38015          
1 69726U 26147Y   26198.05172056  .00270378  00000+0  13765-2 0  9992
2 69726  97.2828 234.5863 0003109 175.2803 184.8496 15.80693791  4157
STARLINK-38010          
1 69727U 26147Z   26200.55867082  .00117732  00000+0  77807-3 0  9994
2 69727  97.2826 237.1463 0000315 126.2430 233.8864 15.75228552  4549
SXM-11                  
1 69728U 26148A   26200.52514741  .00000006  00000+0  00000+0 0  9996
2 69728   0.1001 264.9874 0002034 185.7788 275.0680  1.00270397   365
HAIYANG-2E              
1 69737U 26149A   26200.43881615 -.00000047  00000+0 -23711-5 0  9991
2 69737  99.3444 207.3057 0001621  89.5851 270.5487 13.79314803  2405
STARLINK-38033          
1 69739U 26150A   26200.51564931  .00105250  00000+0  54288-3 0  9994
2 69739  97.2846  39.1269 0000437  19.8327 340.2958 15.80845988  4007
STARLINK-38076          
1 69740U 26150B   26200.48625106  .00166966  00000+0  10948-2 0  9999
2 69740  97.2840  39.0116 0002934  77.3192 282.8401 15.75266947  3993
STARLINK-38074          
1 69741U 26150C   26200.58335648 -.00138636  00000+0 -94092-3 0  9998
2 69741  97.2842  39.1935 0000865  84.3694 286.0006 15.75260389  4006
STARLINK-38041          
1 69742U 26150D   26200.58335648 -.00118320  00000+0 -80154-3 0  9991
2 69742  97.2853  39.1708 0001145  83.5575 232.8282 15.75244287  4002
STARLINK-38087          
1 69743U 26150E   26200.58335648 -.00110834  00000+0 -75026-3 0  9996
2 69743  97.2845  39.1884 0001042  77.3465 281.0349 15.75240129  4005
STARLINK-38078          
1 69744U 26150F   26200.51080953  .00308334  00000+0  15446-2 0  9997
2 69744  97.2844  39.1332 0002124 119.3640 240.7841 15.80952306  4009
STARLINK-38047          
1 69745U 26150G   26200.58335648 -.00134736  00000+0 -91424-3 0  9995
2 69745  97.2852  39.1739 0000477  78.6895 247.6912 15.75255424  4004
STARLINK-38046          
1 69746U 26150H   26200.58335648 -.01346792  00000+0 -96768-2 0  9999
2 69746  97.2843  39.2146 0001298  83.0458 336.7751 15.76197305  4000
